satname,norad_id,inclination_deg,eccentricity,mean_motion_rev_per_day,perigee_km,apogee_km,l1,l2
STARLINK-1210,45207,53.0297,0.0010298,15.45387545,423.2283196312155,437.25085204741026,1 45207U 20012AF  25257.58570242  .00126950  00000+0  25770-2 0  9992,2 45207  53.0297  51.9002 0010298 224.7302 135.2874 15.45387545309215
STARLINK-1231,45212,53.0528,0.0003849,15.08516371,538.0696972174055,543.3958431664987,1 45212U 20012AL  25257.25865079  .00015268  00000+0  98374-3 0  9997,2 45212  53.0528  98.2961 0003849 141.5696 218.5569 15.08516371308486
STARLINK-1271,45217,53.054,0.0001475,15.06398565,546.1944664490802,548.2374455711033,1 45217U 20012AR  25256.97153642  .00000760  00000+0  69893-4 0  9992,2 45217  53.0540  99.9364 0001475  87.3799 272.7359 15.06398565308484
STARLINK-1191,45222,53.0547,0.0001324,15.06399151,546.2972435086367,548.1310764958062,1 45222U 20012AW  25257.24613797  .00001026  00000+0  87763-4 0  9993,2 45222  53.0547  78.7036 0001324  93.6375 266.4765 15.06399151308800
STARLINK-1212,45223,53.055,0.0001433,15.06395432,546.2331537811488,548.2179626903389,1 45223U 20012AX  25257.19829977  .00000224  00000+0  33930-4 0  9993,2 45223  53.0550  79.5738 0001433  92.2493 267.8660 15.06395432308795
STARLINK-1215,45225,53.0546,8.62e-05,15.06395035,546.6298086325778,547.8237413473853,1 45225U 20012AZ  25257.48572473  .00001682  00000+0  13180-3 0  9996,2 45225  53.0546  77.6275 0000862 102.8483 257.2602 15.06395035308797
STARLINK-1217,45226,53.0457,0.0002743,15.84279464,316.5175121299462,320.1912072898831,1 45226U 20012BA  25257.58335648  .00200916  00000+0  85076-3 0  9993,2 45226  53.0457  31.9654 0002743 158.0525 144.7548 15.84279464  5991
STARLINK-1221,45227,53.071,0.0004281,15.3487114,458.3753066716981,464.2312354317719,1 45227U 20012BB  25257.59483974  .00011017  00000+0  33172-3 0  9993,2 45227  53.0710  19.5994 0004281 160.4594 199.6573 15.34871140309601
STARLINK-1222,45228,53.0542,0.0001573,15.06394445,546.1392232592816,548.317943271777,1 45228U 20012BC  25256.78908035 -.00000557  00000+0 -18519-4 0  9992,2 45228  53.0542  80.7546 0001573  94.9533 265.1635 15.06394445308629
STARLINK-1226,45229,53.0535,0.0001925,15.06403174,545.868702377702,548.5349578272926,1 45229U 20012BD  25257.48203877  .00000293  00000+0  38576-4 0  9993,2 45229  53.0535  77.6437 0001925  89.8629 270.2580 15.06403174308734
STARLINK-1227,45230,53.0574,0.000147,15.06396845,546.2031999162973,548.2392552352039,1 45230U 20012BE  25257.47834815  .00000705  00000+0  66233-4 0  9995,2 45230  53.0574  77.6619 0001470  97.5461 262.5695 15.06396845308856
STARLINK-1238,45233,53.0386,8.95e-05,15.92563486,294.5148755809814,295.7093871754987,1 45233U 20012BH  25257.58335648  .00313034  48357-4  90396-3 0  9990,2 45233  53.0386  48.4664 0000895  93.3519 223.8611 15.92563486  5757
STARLINK-1246,45235,53.0541,0.0001264,15.06394283,546.35371350281,548.104446047777,1 45235U 20012BK  25256.89597406  .00001908  00000+0  14694-3 0  9996,2 45235  53.0541 120.2755 0001264  93.0881 267.0252 15.06394283308212
STARLINK-1247,45236,53.0414,6.25e-05,15.91563734,297.48915189072795,298.323657316304,1 45236U 20012BL  25257.58335648  .00287032  41918-4  87392-3 0  9999,2 45236  53.0414  28.3851 0000625 152.6845 181.4914 15.91563734  6008
STARLINK-1270,45237,53.0547,0.0001329,15.06394951,546.3066515593991,548.1474133192223,1 45237U 20012BM  25257.49678254  .00001183  00000+0  98300-4 0  9998,2 45237  53.0547  77.5782 0001329  92.8599 267.2542 15.06394951308844
STARLINK-1279,45360,53.0565,0.0001646,15.06396348,546.0828365999214,548.3626650298893,1 45360U 20019A   25257.25626972  .00000167  00000+0  30107-4 0  9998,2 45360  53.0565 208.6579 0001646  86.4040 273.7138 15.06396348303541
STARLINK-1301,45361,53.0571,6.06e-05,15.06403089,546.7824150654624,547.6217661632454,1 45361U 20019B   25257.31062100  .00002584  00000+0  19229-3 0  9999,2 45361  53.0571 218.4148 0000606  87.7582 272.3477 15.06403089303429
STARLINK-1306,45362,53.0505,0.000845,15.54318639,398.402966223146,409.86500418814285,1 45362U 20019C   25257.58335648  .00069763  00000+0  10445-2 0  9991,2 45362  53.0505 222.9245 0008450  52.3965 167.5836 15.54318639  5964
STARLINK-1262,45366,53.0514,0.0001572,15.06370518,546.2132384979641,548.3905964936257,1 45366U 20019G   25257.34197515  .00001234  00000+0  10180-3 0  9994,2 45366  53.0514 238.2705 0001572  91.7260 268.3909 15.06370518303156
STARLINK-1273,45367,53.0508,0.0001544,15.0639567,546.1555529300658,548.2941046627984,1 45367U 20019H   25257.36409011 -.00000191  00000+0  60658-5 0  9993,2 45367  53.0508 238.1781 0001544  87.1604 272.9562 15.06395670303155
STARLINK-1276,45368,53.0545,0.0001461,15.06395721,546.2128771476819,548.236467828383,1 45368U 20019J   25256.67112867  .00000457  00000+0  49596-4 0  9998,2 45368  53.0545 241.2878 0001461  87.1218 272.9938 15.06395721303051
STARLINK-1277,45369,53.0523,0.0001584,15.06409337,546.0859708471235,548.2799122045981,1 45369U 20019K   25257.32730116  .00002061  00000+0  15715-3 0  9993,2 45369  53.0523 238.9699 0001584  85.1650 274.9520 15.06409337303144
STARLINK-1281,45370,53.0549,0.0001227,15.06398631,546.3660129463997,548.0654945121642,1 45370U 20019L   25257.32355366  .00001361  00000+0  11021-3 0  9993,2 45370  53.0549 238.3585 0001227  86.4617 273.6513 15.06398631303156
STARLINK-1300,45374,53.0534,0.0001308,15.06405093,546.2901151210963,548.1017822204676,1 45374U 20019Q   25256.68217381  .00001052  00000+0  89467-4 0  9996,2 45374  53.0534 241.2350 0001308  90.1954 269.9185 15.06405093303056
STARLINK-1302,45375,53.0542,0.000139,15.06402424,546.2415063204653,548.1667511542528,1 45375U 20019R   25257.22770017  .00001385  00000+0  11183-3 0  9996,2 45375  53.0542 238.7897 0001390  78.7542 281.3604 15.06402424303137
STARLINK-1304,45376,53.0523,0.0001452,15.06391456,546.232179778629,548.2433086043411,1 45376U 20019S   25257.37883197  .00001510  00000+0  12030-3 0  9999,2 45376  53.0523 238.1120 0001452  93.2943 266.8212 15.06391456303153
STARLINK-1305,45377,53.055,0.0001437,15.06382628,546.2696208891011,548.2599813667457,1 45377U 20019T   25257.33828871  .00001888  00000+0  14566-3 0  9998,2 45377  53.0550 238.2893 0001437  87.7904 272.3250 15.06382628303155
STARLINK-1319,45379,53.0532,0.0001575,15.06402592,546.1128726963043,548.2943549896654,1 45379U 20019V   25256.66744280  .00000137  00000+0  28102-4 0  9994,2 45379  53.0532 241.3052 0001575  89.1791 270.9379 15.06402592303050
STARLINK-1258,45381,53.0449,0.0006707,15.96219278,280.4502455417896,289.38806907120033,1 45381U 20019X   25257.58335648  .00347573  59565-4  82284-3 0  9996,2 45381  53.0449 166.3286 0006707 120.0811 183.5014 15.96219278  6056
STARLINK-1266,45383,53.0548,0.0001383,15.06403683,546.2424959522714,548.1580442411796,1 45383U 20019Z   25256.60293711  .00000411  00000+0  46509-4 0  9997,2 45383  53.0548 221.5939 0001383  86.2963 273.8184 15.06403683303319
STARLINK-1267,45384,53.0553,0.0001713,15.06392951,546.046846283497,548.4194781010647,1 45384U 20019AA  25257.31809352  .00000506  00000+0  52868-4 0  9991,2 45384  53.0553 219.0396 0001713  89.2845 270.8341 15.06392951303412
STARLINK-1272,45386,53.0559,0.0001032,15.06404978,546.4816067305792,547.9109955239328,1 45386U 20019AC  25257.19267526 -.00000032  00000+0  16743-4 0  9997,2 45386  53.0559 218.9463 0001032  91.0172 269.0935 15.06404978303402
STARLINK-1274,45387,53.0427,0.0007073,15.2399998,488.9294294106121,498.6504572646563,1 45387U 20019AD  25257.25244426  .00028156  00000+0  11562-2 0  9997,2 45387  53.0427 210.6749 0007073  36.3484 323.7992 15.23999980303527
STARLINK-1280,45388,53.0523,0.0001438,15.0639698,546.2249473651536,548.2166802724078,1 45388U 20019AE  25257.24981825  .00000525  00000+0  54111-4 0  9997,2 45388  53.0523 238.6888 0001438  82.2969 277.8183 15.06396980303125
STARLINK-1283,45389,53.0527,0.0001394,15.06412384,546.2082147238598,548.138991319981,1 45389U 20019AF  25257.29589024  .00001454  00000+0  11645-3 0  9994,2 45389  53.0527 218.4813 0001394  87.6857 272.4291 15.06412384303421
STARLINK-1284,45390,53.0538,0.0001434,15.06398528,546.2229737797907,548.2091650400971,1 45390U 20019AG  25257.27008777  .00001345  00000+0  10917-3 0  9995,2 45390  53.0538 218.5977 0001434  92.0079 268.1074 15.06398528303411
STARLINK-1292,45394,53.0501,0.0004741,15.70468435,354.3638806047229,360.75066591462746,1 45394U 20019AL  25257.58335648  .00173077  00000+0  13596-2 0  9990,2 45394  53.0501 192.4944 0004741 116.1849  39.1207 15.70468435  5998
STARLINK-1297,45395,53.0548,0.0001288,15.06407313,546.2971627297729,548.081126744657,1 45395U 20019AM  25257.17425168  .00001246  00000+0  10248-3 0  9993,2 45395  53.0548 219.0276 0001288  77.4895 282.6238 15.06407313302588
STARLINK-1307,45397,53.0546,0.0001411,15.06388656,546.2691542953444,548.2234974699086,1 45397U 20019AP  25257.16688520  .00001302  00000+0  10631-3 0  9996,2 45397  53.0546 219.0588 0001411  90.4211 269.6939 15.06388656303222
STARLINK-1312,45398,53.0494,0.0011274,15.68114636,356.69452272360104,371.89736052036915,1 45398U 20019AQ  25257.58335648  .00180867  00000+0  15600-2 0  9997,2 45398  53.0494 191.8112 0011274  57.8115  10.7897 15.68114636  5997
STARLINK-1255,45399,53.0556,0.0001165,15.0642171,546.3382253587815,547.951816069608,1 45399U 20019AR  25257.13463962 -.00002707  00000+0 -16279-3 0  9992,2 45399  53.0556 209.2076 0001165  90.3540 269.7583 15.06421710303346
STARLINK-1259,45403,53.0486,0.001037,15.79981167,323.537094491111,337.4507950705856,1 45403U 20019AV  25257.58335648  .00206970  00000+0  10666-2 0  9995,2 45403  53.0486 174.4247 0010370  64.4528 102.4409 15.79981167  5934
STARLINK-1260,45404,53.0533,0.0001454,15.06393434,546.2247332493544,548.2386304620377,1 45404U 20019AW  25257.23414966  .00000859  00000+0  76596-4 0  9993,2 45404  53.0533 208.7597 0001454  91.1058 269.0098 15.06393434303260
